BEIDOU-3 IGSO-3 (C40)   
1 44709U 19073A   26086.93821052 -.00000159  00000+0  00000+0 0  9990
2 44709  54.9409 281.7732 0041008 188.7198 171.1983  1.00261892 23646
